start=new Date('2021-12-11T00:00:00.000Z').valueOf();
sats=[{"MEAN_ANOMALY":"260.2807","BSTAR":"-0.00004068800000","REV_AT_EPOCH":"5020","TIME_SYSTEM":"UTC","PERIAPSIS":"546.252","GP_ID":"191458839","INCLINATION":"53.0533","COUNTRY_CODE":"US","CENTER_NAME":"EARTH","OBJECT_ID":"2021-005AW","REF_FRAME":"TEME","PERIOD":"95.593","TLE_LINE1":"1 47393U 21005AW  21344.78681015 -.00000887  00000-0 -40688-4 0  9999","MEAN_ELEMENT_THEORY":"SGP4","MEAN_MOTION_DOT":"-0.00000887","DECAY_DATE":null,"SITE":"AFETR","EPHEMERIS_TYPE":"0","CLASSIFICATION_TYPE":"U","APOAPSIS":"548.216","MEAN_MOTION_DDOT":"0.0000000000000","RCS_SIZE":"LARGE","OBJECT_NAME":"STARLINK-2114","MEAN_MOTION":"15.06393473","ARG_OF_PERICENTER":"99.8342","EPOCH":"2021-12-10T18:53:00.396960","FILE":"3237005","ECCENTRICITY":"0.00014180","NORAD_CAT_ID":"47393","SEMIMAJOR_AXIS":"6925.369","ELEMENT_SET_NO":"999","TLE_LINE2":"2 47393  53.0533 124.4023 0001418  99.8342 260.2807 15.06393473 50205","OBJECT_TYPE":"PAYLOAD","LAUNCH_DATE":"2021-01-20","RA_OF_ASC_NODE":"124.4023"},{"NORAD_CAT_ID":"47394","ECCENTRICITY":"0.00020900","ARG_OF_PERICENTER":"91.2307","FILE":"3237005","EPOCH":"2021-12-10T20:52:28.553088","RA_OF_ASC_NODE":"144.0329","OBJECT_TYPE":"PAYLOAD","TLE_LINE2":"2 47394  53.0525 144.0329 0002090  91.2307 268.8921 15.06387403 49944","LAUNCH_DATE":"2021-01-20","SEMIMAJOR_AXIS":"6925.387","ELEMENT_SET_NO":"999","EPHEMERIS_TYPE":"0","SITE":"AFETR","CLASSIFICATION_TYPE":"U","OBJECT_NAME":"STARLINK-2115","MEAN_MOTION":"15.06387403","APOAPSIS":"548.700","RCS_SIZE":"LARGE","MEAN_MOTION_DDOT":"0.0000000000000","OBJECT_ID":"2021-005AX","CENTER_NAME":"EARTH","COUNTRY_CODE":"US","REF_FRAME":"TEME","PERIOD":"95.593","GP_ID":"191459590","INCLINATION":"53.0525","DECAY_DATE":null,"MEAN_ELEMENT_THEORY":"SGP4","TLE_LINE1":"1 47394U 21005AX  21344.86977492  .00000365  00000-0  43450-4 0  9995","MEAN_MOTION_DOT":"0.00000365","BSTAR":"0.00004345000000","TIME_SYSTEM":"UTC","REV_AT_EPOCH":"4994","MEAN_ANOMALY":"268.8921","PERIAPSIS":"545.805"},{"EPHEMERIS_TYPE":"0","SITE":"AFETR","CLASSIFICATION_TYPE":"U","APOAPSIS":"548.704","MEAN_MOTION_DDOT":"0.0000000000000","RCS_SIZE":"LARGE","OBJECT_NAME":"STARLINK-2117","MEAN_MOTION":"15.06404848","ARG_OF_PERICENTER":"92.0945","EPOCH":"2021-12-10T21:44:52.884960","FILE":"3237005","ECCENTRICITY":"0.00021730","NORAD_CAT_ID":"47395","SEMIMAJOR_AXIS":"6925.334","ELEMENT_SET_NO":"999","TLE_LINE2":"2 47395  53.0551 138.8639 0002173  92.0945 268.0293 15.06404848 50015","OBJECT_TYPE":"PAYLOAD","LAUNCH_DATE":"2021-01-20","RA_OF_ASC_NODE":"138.8639","MEAN_ANOMALY":"268.0293","BSTAR":"0.00004116200000","REV_AT_EPOCH":"5001","TIME_SYSTEM":"UTC","PERIAPSIS":"545.694","GP_ID":"191458338","INCLINATION":"53.0551","COUNTRY_CODE":"US","CENTER_NAME":"EARTH","OBJECT_ID":"2021-005AY","PERIOD":"95.592","REF_FRAME":"TEME","TLE_LINE1":"1 47395U 21005AY  21344.90616765  .00000331  00000-0  41162-4 0  9995","MEAN_ELEMENT_THEORY":"SGP4","MEAN_MOTION_DOT":"0.00000331","DECAY_DATE":null},{"DECAY_DATE":null,"MEAN_ELEMENT_THEORY":"SGP4","TLE_LINE1":"1 47396U 21005AZ  21344.88315340  .00000399  00000-0  45706-4 0  9990","MEAN_MOTION_DOT":"0.00000399","CENTER_NAME":"EARTH","OBJECT_ID":"2021-005AZ","COUNTRY_CODE":"US","PERIOD":"95.593","REF_FRAME":"TEME","GP_ID":"191458088","INCLINATION":"53.0553","PERIAPSIS":"545.810","BSTAR":"0.00004570600000","REV_AT_EPOCH":"4987","TIME_SYSTEM":"UTC","MEAN_ANOMALY":"264.6801","RA_OF_ASC_NODE":"148.9733","OBJECT_TYPE":"PAYLOAD","TLE_LINE2":"2 47396  53.0553 148.9733 0002052  95.4422 264.6801 15.06394205 49872","LAUNCH_DATE":"2021-01-20","SEMIMAJOR_AXIS":"6925.366","ELEMENT_SET_NO":"999","NORAD_CAT_ID":"47396","ECCENTRICITY":"0.00020520","ARG_OF_PERICENTER":"95.4422","FILE":"3237005","EPOCH":"2021-12-10T21:11:44.453760","OBJECT_NAME":"STARLINK-2118","MEAN_MOTION":"15.06394205","APOAPSIS":"548.652","RCS_SIZE":"LARGE","MEAN_MOTION_DDOT":"0.0000000000000","EPHEMERIS_TYPE":"0","SITE":"AFETR","CLASSIFICATION_TYPE":"U"},{"CLASSIFICATION_TYPE":"U","EPHEMERIS_TYPE":"0","SITE":"AFETR","RCS_SIZE":"LARGE","MEAN_MOTION_DDOT":"0.0000000000000","APOAPSIS":"548.753","MEAN_MOTION":"15.06400142","OBJECT_NAME":"STARLINK-2119","FILE":"3237005","EPOCH":"2021-12-10T19:32:11.721984","ARG_OF_PERICENTER":"78.8188","NORAD_CAT_ID":"47397","ECCENTRICITY":"0.00022240","ELEMENT_SET_NO":"999","SEMIMAJOR_AXIS":"6925.348","RA_OF_ASC_NODE":"179.2882","TLE_LINE2":"2 47397  53.0527 179.2882 0002224  78.8188 281.3051 15.06400142 49445","OBJECT_TYPE":"PAYLOAD","LAUNCH_DATE":"2021-01-20","MEAN_ANOMALY":"281.3051","REV_AT_EPOCH":"4944","TIME_SYSTEM":"UTC","BSTAR":"0.00016436000000","PERIAPSIS":"545.673","INCLINATION":"53.0527","GP_ID":"191459340","PERIOD":"95.592","REF_FRAME":"TEME","OBJECT_ID":"2021-005BA","CENTER_NAME":"EARTH","COUNTRY_CODE":"US","MEAN_MOTION_DOT":"0.00002167","MEAN_ELEMENT_THEORY":"SGP4","TLE_LINE1":"1 47397U 21005BA  21344.81402456  .00002167  00000-0  16436-3 0  9991","DECAY_DATE":null},{"ELEMENT_SET_NO":"999","SEMIMAJOR_AXIS":"6925.341","RA_OF_ASC_NODE":"149.0994","OBJECT_TYPE":"PAYLOAD","TLE_LINE2":"2 47398  53.0528 149.0994 0002604  93.4234 266.7053 15.06402389 49863","LAUNCH_DATE":"2021-01-20","FILE":"3237005","EPOCH":"2021-12-10T20:29:13.817760","ARG_OF_PERICENTER":"93.4234","NORAD_CAT_ID":"47398","ECCENTRICITY":"0.00026040","RCS_SIZE":"LARGE","MEAN_MOTION_DDOT":"0.0000000000000","APOAPSIS":"549.010","MEAN_MOTION":"15.06402389","OBJECT_NAME":"STARLINK-2120","CLASSIFICATION_TYPE":"U","SITE":"AFETR","EPHEMERIS_TYPE":"0","MEAN_MOTION_DOT":"-0.00000221","MEAN_ELEMENT_THEORY":"SGP4","TLE_LINE1":"1 47398U 21005BB  21344.85363215 -.00000221  00000-0  40756-5 0  9999","DECAY_DATE":null,"GP_ID":"191459090","INCLINATION":"53.0528","PERIOD":"95.592","REF_FRAME":"TEME","CENTER_NAME":"EARTH","OBJECT_ID":"2021-005BB","COUNTRY_CODE":"US","PERIAPSIS":"545.403","MEAN_ANOMALY":"266.7053","REV_AT_EPOCH":"4986","TIME_SYSTEM":"UTC","BSTAR":"0.00000407560000"},{"PERIAPSIS":"545.681","TIME_SYSTEM":"UTC","REV_AT_EPOCH":"4972","BSTAR":"0.00003265100000","MEAN_ANOMALY":"271.7714","DECAY_DATE":null,"MEAN_MOTION_DOT":"0.00000204","MEAN_ELEMENT_THEORY":"SGP4","TLE_LINE1":"1 47399U 21005BC  21344.86654105  .00000204  00000-0  32651-4 0  9996","REF_FRAME":"TEME","PERIOD":"95.593","CENTER_NAME":"EARTH","OBJECT_ID":"2021-005BC","COUNTRY_CODE":"US","INCLINATION":"53.0548","GP_ID":"191457838","MEAN_MOTION":"15.06389914","OBJECT_NAME":"STARLINK-2121","RCS_SIZE":"LARGE","MEAN_MOTION_DDOT":"0.0000000000000","APOAPSIS":"548.808","CLASSIFICATION_TYPE":"U","EPHEMERIS_TYPE":"0","SITE":"AFETR","RA_OF_ASC_NODE":"159.0415","OBJECT_TYPE":"PAYLOAD","TLE_LINE2":"2 47399  53.0548 159.0415 0002258  88.3533 271.7714 15.06389914 49728","LAUNCH_DATE":"2021-01-20","ELEMENT_SET_NO":"999","SEMIMAJOR_AXIS":"6925.379","NORAD_CAT_ID":"47399","ECCENTRICITY":"0.00022580","FILE":"3237005","EPOCH":"2021-12-10T20:47:49.146720","ARG_OF_PERICENTER":"88.3533"},{"APOAPSIS":"548.456","RCS_SIZE":"LARGE","MEAN_MOTION_DDOT":"0.0000000000000","OBJECT_NAME":"STARLINK-2122","MEAN_MOTION":"15.06397634","SITE":"AFETR","EPHEMERIS_TYPE":"0","CLASSIFICATION_TYPE":"U","SEMIMAJOR_AXIS":"6925.356","ELEMENT_SET_NO":"999","RA_OF_ASC_NODE":"139.1086","TLE_LINE2":"2 47400  53.0539 139.1086 0001784  97.8676 262.2516 15.06397634 50006","OBJECT_TYPE":"PAYLOAD","LAUNCH_DATE":"2021-01-20","ARG_OF_PERICENTER":"97.8676","FILE":"3237005","EPOCH":"2021-12-10T20:23:54.917952","NORAD_CAT_ID":"47400","ECCENTRICITY":"0.00017840","PERIAPSIS":"545.985","MEAN_ANOMALY":"262.2516","BSTAR":"0.00003954300000","TIME_SYSTEM":"UTC","REV_AT_EPOCH":"5000","MEAN_ELEMENT_THEORY":"SGP4","TLE_LINE1":"1 47400U 21005BD  21344.84994118  .00000307  00000-0  39543-4 0  9999","MEAN_MOTION_DOT":"0.00000307","DECAY_DATE":null,"GP_ID":"191458589","INCLINATION":"53.0539","CENTER_NAME":"EARTH","OBJECT_ID":"2021-005BD","COUNTRY_CODE":"US","PERIOD":"95.592","REF_FRAME":"TEME"},{"EPHEMERIS_TYPE":"0","SITE":"AFETR","CLASSIFICATION_TYPE":"U","OBJECT_NAME":"STARLINK-2123","MEAN_MOTION":"15.06393809","APOAPSIS":"548.807","MEAN_MOTION_DDOT":"0.0000000000000","RCS_SIZE":"LARGE","ECCENTRICITY":"0.00022740","NORAD_CAT_ID":"47401","ARG_OF_PERICENTER":"85.5515","EPOCH":"2021-12-10T20:50:30.819264","FILE":"3237005","TLE_LINE2":"2 47401  53.0544 149.0427 0002274  85.5515 274.5733 15.06393809 49873","OBJECT_TYPE":"PAYLOAD","LAUNCH_DATE":"2021-01-20","RA_OF_ASC_NODE":"149.0427","SEMIMAJOR_AXIS":"6925.368","ELEMENT_SET_NO":"999","BSTAR":"0.00004164400000","REV_AT_EPOCH":"4987","TIME_SYSTEM":"UTC","MEAN_ANOMALY":"274.5733","PERIAPSIS":"545.658","COUNTRY_CODE":"US","CENTER_NAME":"EARTH","OBJECT_ID":"2021-005BE","REF_FRAME":"TEME","PERIOD":"95.593","INCLINATION":"53.0544","GP_ID":"191458840","DECAY_DATE":null,"TLE_LINE1":"1 47401U 21005BE  21344.86841226  .00000338  00000-0  41644-4 0  9992","MEAN_ELEMENT_THEORY":"SGP4","MEAN_MOTION_DOT":"0.00000338"},{"MEAN_MOTION_DOT":"-0.00000694","TLE_LINE1":"1 47402U 21005BF  21344.88681240 -.00000694  00000-0 -27689-4 0  9993","MEAN_ELEMENT_THEORY":"SGP4","DECAY_DATE":null,"GP_ID":"191459591","INCLINATION":"53.0534","REF_FRAME":"TEME","PERIOD":"95.593","COUNTRY_CODE":"US","OBJECT_ID":"2021-005BF","CENTER_NAME":"EARTH","PERIAPSIS":"545.700","MEAN_ANOMALY":"268.5977","REV_AT_EPOCH":"4987","TIME_SYSTEM":"UTC","BSTAR":"-0.00002768900000","ELEMENT_SET_NO":"999","SEMIMAJOR_AXIS":"6925.367","LAUNCH_DATE":"2021-01-20","TLE_LINE2":"2 47402  53.0534 148.9566 0002213  91.5266 268.5977 15.06393835 49870","OBJECT_TYPE":"PAYLOAD","RA_OF_ASC_NODE":"148.9566","EPOCH":"2021-12-10T21:17:00.591360","FILE":"3237005","ARG_OF_PERICENTER":"91.5266","ECCENTRICITY":"0.00022130","NORAD_CAT_ID":"47402","MEAN_MOTION_DDOT":"0.0000000000000","RCS_SIZE":"LARGE","APOAPSIS":"548.765","MEAN_MOTION":"15.06393835","OBJECT_NAME":"STARLINK-2124","CLASSIFICATION_TYPE":"U","SITE":"AFETR","EPHEMERIS_TYPE":"0"}];
